OBJECT_NAME,OBJECT_ID,EPOCH,MEAN_MOTION,ECCENTRICITY,INCLINATION,RA_OF_ASC_NODE,ARG_OF_PERICENTER,MEAN_ANOMALY,EPHEMERIS_TYPE,CLASSIFICATION_TYPE,NORAD_CAT_ID,ELEMENT_SET_NO,REV_AT_EPOCH,BSTAR,MEAN_MOTION_DOT,MEAN_MOTION_DDOT
ATLAS CENTAUR 2,1963-047A,2026-07-23T06:03:14.063040,14.12572976,.05456796,30.3538,157.6920,195.5901,162.7264,0,U,694,999,15080,.83246675E-4,.803E-5,0
THOR AGENA D R/B,1964-002A,2026-07-23T10:30:21.504096,14.34078709,.00321295,99.1155,225.1250,221.8691,138.0035,0,U,733,999,25775,.6757292E-4,.141E-5,0
SL-3 R/B,1964-053B,2026-07-23T12:43:05.788704,14.61442781,.00799563,65.0776,292.9514,249.6854,109.5641,0,U,877,999,28664,.44686611E-4,.105E-5,0
SL-8 R/B,1967-045B,2026-07-23T09:58:14.776320,14.45698700,.0063133,74.0108,94.5963,68.9499,291.8395,0,U,2802,999,10863,.66870801E-4,.215E-5,0
SL-8 R/B,1968-040B,2026-07-23T12:06:00.869472,15.03971637,.00246095,74.0292,36.0060,182.1287,177.9801,0,U,3230,999,11042,.17021854E-3,.2322E-4,0
OAO 2,1968-110A,2026-07-23T11:29:19.094208,14.47363750,.00057525,34.9919,227.0411,211.5326,148.5020,0,U,3597,999,3878,.40612651E-4,.132E-5,0
ISIS 1,1969-009A,2026-07-23T13:44:10.741056,11.30437588,.17072674,88.4457,140.4054,174.7452,187.4395,0,U,3669,999,36388,.50017056E-4,.84E-6,0
SERT 2,1970-009A,2026-07-23T13:58:17.347872,13.58741507,.00048902,99.2839,140.3424,167.4864,14.8383,0,U,4327,999,79834,.45847712E-4,-.8E-7,0
SL-3 R/B,1971-028B,2026-07-23T12:59:09.173760,15.73177281,.00148525,81.2299,242.7291,153.9408,206.2602,0,U,5118,999,995,.41140909E-3,.57079E-3,0
ASTEX 1,1971-089A,2026-07-23T10:03:17.817408,14.50876681,.00151787,92.7014,195.5258,355.2273,4.8786,0,U,5560,999,88198,.1030092E-3,.406E-5,0
SL-8 R/B,1971-119B,2026-07-23T11:59:30.614496,14.39823689,.05422598,73.8871,281.3810,220.0313,135.9682,0,U,5730,999,67502,.41012578E-3,.8041E-4,0
OAO 3 (COPERNICUS),1972-065A,2026-07-23T13:36:28.823328,14.60077734,.00067081,35.0046,243.1143,197.3039,323.7091,0,U,6153,999,86606,.45265391E-4,.2E-5,0
ATLAS CENTAUR R/B,1972-065B,2026-07-23T08:26:40.433568,14.77973340,.00329376,34.9998,230.5179,72.1167,288.3122,0,U,6155,999,86134,.8538081E-4,.606E-5,0
SL-8 R/B,1975-112B,2026-07-23T05:02:52.983744,14.38261021,.0015894,74.0612,129.6042,190.6175,169.4646,0,U,8459,999,65135,.70065922E-4,.187E-5,0
SL-3 R/B,1977-057B,2026-07-23T12:58:00.470208,15.48539995,.00079681,97.5857,22.8645,141.9334,218.2480,0,U,10114,999,68933,.20404976E-3,.10781E-3,0
SEASAT 1,1978-064A,2026-07-23T08:16:57.610272,14.46263064,.00010356,108.0178,50.1946,268.4580,91.6447,0,U,10967,999,52612,.66624682E-4,.101E-5,0
SL-14 R/B,1979-011B,2026-07-23T14:11:47.961312,14.92043515,.00150481,82.5263,327.6061,328.2646,31.7665,0,U,11267,999,54904,.42290503E-4,.455E-5,0
SL-8 R/B,1979-089B,2026-07-23T09:48:58.437216,14.42416393,.00163437,74.0672,199.8030,332.9506,27.0797,0,U,11574,999,45567,.45376234E-4,.124E-5,0
SL-14 R/B,1980-005B,2026-07-23T08:36:31.387104,14.91055635,.00172732,82.5146,178.5281,72.8089,287.5020,0,U,11672,999,49670,.47493483E-4,.497E-5,0
SL-8 R/B,1981-003B,2026-07-23T08:28:24.133440,15.15358135,.02487357,82.9383,164.1471,65.3249,297.3663,0,U,12139,999,33519,.59372551E-3,.25062E-3,0
SL-3 R/B,1981-046B,2026-07-23T12:47:18.589920,15.44922852,.00156405,81.2311,126.2628,264.8476,95.0984,0,U,12465,999,45938,.26009073E-3,.12318E-3,0
SL-3 R/B,1981-103B,2026-07-23T12:45:29.409696,15.22533454,.00126557,81.1571,53.9225,182.7916,177.3248,0,U,12904,999,99389,.19019563E-3,.4444E-4,0
SL-3 R/B,1982-013B,2026-07-23T13:22:45.598080,15.23006961,.00228761,81.1746,1.3563,81.6436,278.7389,0,U,13068,999,42502,.14781423E-3,.3527E-4,0
SL-3 R/B,1982-039B,2026-07-23T14:20:49.290144,15.10728270,.00291922,81.1514,59.0254,230.1766,129.6891,0,U,13154,999,40215,.12201885E-3,.2065E-4,0
SL-3 R/B,1982-079B,2026-07-23T13:48:43.504992,15.26073286,.00247707,81.1452,32.4318,66.4301,293.9531,0,U,13403,999,39841,.17925984E-3,.4686E-4,0
SL-14 R/B,1982-092B,2026-07-23T10:57:49.531392,14.86769290,.00195742,82.5675,14.3581,206.8089,183.2984,0,U,13553,999,34910,.40892328E-4,.39E-5,0
SL-3 R/B,1983-010B,2026-07-23T09:53:25.117728,15.50076272,.0012786,81.1003,195.3186,291.5697,68.4187,0,U,13819,999,37894,.2387051E-3,.13491E-3,0
SL-3 R/B,1983-075B,2026-07-23T13:36:33.426720,15.41107764,.00224441,97.6114,214.5747,102.1272,258.2491,0,U,14208,999,35106,.26602744E-3,.11018E-3,0
COSMOS 1536,1984-013A,2026-07-23T09:02:21.436800,15.25419797,.00146623,82.5459,332.7903,159.9510,200.2307,0,U,14699,999,29329,.27613528E-3,.7029E-4,0
SL-14 R/B,1984-027B,2026-07-23T12:10:46.810272,14.86083012,.00164807,82.5429,117.6596,241.4115,118.5444,0,U,14820,999,26780,.32433707E-4,.309E-5,0
