ATLAS CENTAUR 2         
1 00694U 63047A   26204.25224610  .00000803  00000+0  83247-4 0  9993
2 00694  30.3538 157.6920 0545679 195.5901 162.7264 14.12572976150805
THOR AGENA D R/B        
1 00733U 64002A   26204.43774889  .00000141  00000+0  67573-4 0  9996
2 00733  99.1155 225.1250 0032129 221.8691 138.0035 14.34078709257757
SL-3 R/B                
1 00877U 64053B   26204.52992811  .00000105  00000+0  44687-4 0  9999
2 00877  65.0776 292.9514 0079956 249.6854 109.5641 14.61442781286641
SL-8 R/B                
1 02802U 67045B   26204.41544880  .00000215  00000+0  66871-4 0  9991
2 02802  74.0108  94.5963 0063133  68.9499 291.8395 14.45698700108630
SL-8 R/B                
1 03230U 68040B   26204.50417673  .00002322  00000+0  17022-3 0  9996
2 03230  74.0292  36.0060 0024609 182.1287 177.9801 15.03971637110422
OAO 2                   
1 03597U 68110A   26204.47869322  .00000132  00000+0  40613-4 0  9998
2 03597  34.9919 227.0411 0005752 211.5326 148.5020 14.47363750 38783
ISIS 1                  
1 03669U 69009A   26204.57234654  .00000084  00000+0  50017-4 0  9996
2 03669  88.4457 140.4054 1707267 174.7452 187.4395 11.30437588363885
SERT 2                  
1 04327U 70009A   26204.58214523 -.00000008  00000+0  45848-4 0  9997
2 04327  99.2839 140.3424 0004890 167.4864  14.8383 13.58741507798342
SL-3 R/B                
1 05118U 71028B   26204.54107840  .00057079  00000+0  41141-3 0  9997
2 05118  81.2299 242.7291 0014852 153.9408 206.2602 15.73177281  9958
ASTEX 1                 
1 05560U 71089A   26204.41895622  .00000406  00000+0  10301-3 0  9999
2 05560  92.7014 195.5258 0015178 355.2273   4.8786 14.50876681881988
SL-8 R/B                
1 05730U 71119B   26204.49965989  .00008041  00000+0  41013-3 0  9991
2 05730  73.8871 281.3810 0542259 220.0313 135.9682 14.39823689675029
OAO 3 (COPERNICUS)      
1 06153U 72065A   26204.56700027  .00000200  00000+0  45265-4 0  9993
2 06153  35.0046 243.1143 0006708 197.3039 323.7091 14.60077734866066
ATLAS CENTAUR R/B       
1 06155U 72065B   26204.35185687  .00000606  00000+0  85381-4 0  9994
2 06155  34.9998 230.5179 0032937  72.1167 288.3122 14.77973340861349
SL-8 R/B                
1 08459U 75112B   26204.21033546  .00000187  00000+0  70066-4 0  9998
2 08459  74.0612 129.6042 0015894 190.6175 169.4646 14.38261021651352
SL-3 R/B                
1 10114U 77057B   26204.54028322  .00010781  00000+0  20405-3 0  9993
2 10114  97.5857  22.8645 0007968 141.9334 218.2480 15.48539995689334
SEASAT 1                
1 10967U 78064A   26204.34511123  .00000101  00000+0  66625-4 0  9992
2 10967 108.0178  50.1946 0001035 268.4580  91.6447 14.46263064526120
SL-14 R/B               
1 11267U 79011B   26204.59152733  .00000455  00000+0  42291-4 0  9999
2 11267  82.5263 327.6061 0015048 328.2646  31.7665 14.92043515549043
SL-8 R/B                
1 11574U 79089B   26204.40900969  .00000124  00000+0  45376-4 0  9997
2 11574  74.0672 199.8030 0016343 332.9506  27.0797 14.42416393455677
SL-14 R/B               
1 11672U 80005B   26204.35869661  .00000497  00000+0  47493-4 0  9998
2 11672  82.5146 178.5281 0017273  72.8089 287.5020 14.91055635496700
SL-8 R/B                
1 12139U 81003B   26204.35305710  .00025062  00000+0  59373-3 0  9990
2 12139  82.9383 164.1471 0248735  65.3249 297.3663 15.15358135335197
SL-3 R/B                
1 12465U 81046B   26204.53285405  .00012318  00000+0  26009-3 0  9997
2 12465  81.2311 126.2628 0015640 264.8476  95.0984 15.44922852459382
SL-3 R/B                
1 12904U 81103B   26204.53159039  .00004444  00000+0  19020-3 0  9998
2 12904  81.1571  53.9225 0012655 182.7916 177.3248 15.22533454993894
SL-3 R/B                
1 13068U 82013B   26204.55747220  .00003527  00000+0  14781-3 0  9998
2 13068  81.1746   1.3563 0022876  81.6436 278.7389 15.23006961425028
SL-3 R/B                
1 13154U 82039B   26204.59779271  .00002065  00000+0  12202-3 0  9999
2 13154  81.1514  59.0254 0029192 230.1766 129.6891 15.10728270402150
SL-3 R/B                
1 13403U 82079B   26204.57550353  .00004686  00000+0  17926-3 0  9995
2 13403  81.1452  32.4318 0024770  66.4301 293.9531 15.26073286398412
SL-14 R/B               
1 13553U 82092B   26204.45682328  .00000390  00000+0  40892-4 0  9998
2 13553  82.5675  14.3581 0019574 206.8089 183.2984 14.86769290349107
SL-3 R/B                
1 13819U 83010B   26204.41209627  .00013491  00000+0  23871-3 0  9990
2 13819  81.1003 195.3186 0012786 291.5697  68.4187 15.50076272378943
SL-3 R/B                
1 14208U 83075B   26204.56705355  .00011018  00000+0  26603-3 0  9998
2 14208  97.6114 214.5747 0022444 102.1272 258.2491 15.41107764351068
COSMOS 1536             
1 14699U 84013A   26204.37663700  .00007029  00000+0  27614-3 0  9991
2 14699  82.5459 332.7903 0014662 159.9510 200.2307 15.25419797293299
SL-14 R/B               
1 14820U 84027B   26204.50748623  .00000309  00000+0  32434-4 0  9996
2 14820  82.5429 117.6596 0016480 241.4115 118.5444 14.86083012267802
